NORAD_CAT_ID,OBJECT_NAME,OBJECT_TYPE,EPOCH,MEAN_MOTION,ECCENTRICITY,INCLINATION,RA_OF_ASC_NODE,ARG_OF_PERICENTER,MEAN_ANOMALY,BSTAR,MEAN_MOTION_DOT,MEAN_MOTION_DDOT,TLE_LINE0,TLE_LINE1,TLE_LINE2,SEMIMAJOR_AXIS,PERIOD,APOGEE,PERIGEE,DECAYED
55641.0,STARLINK-5065,PAYLOAD,2023-10-13 06:41:37,14.98334213,0.0002789,70.0002,239.2495,265.6658,94.4182,0.00014441,1.631e-05,0.0,0 STARLINK-5065,1 55641U 23021P   23286.27890141  .00001631  00000-0  14441-3 0  9990,2 55641  70.0002 239.2495 0002789 265.6658  94.4182 14.98334213 36915,6950.18,96.107,573.983,570.106,0.0
55641.0,STARLINK-5065,PAYLOAD,2023-10-13 21:06:49,14.9833535,0.0002868,70.0003,237.7339,268.6499,91.4332,5.5711e-05,5.72e-06,0.0,0 STARLINK-5065,1 55641U 23021P   23286.87974165  .00000572  00000-0  55711-4 0  9994,2 55641  70.0003 237.7339 0002868 268.6499  91.4332 14.98335350 37301,6950.176,96.107,574.035,570.048,0.0
55641.0,STARLINK-5065,PAYLOAD,2023-10-14 06:43:37,14.98341574,0.0002765,70.0006,236.7256,271.1365,88.9477,0.00010533,1.164e-05,0.0,0 STARLINK-5065,1 55641U 23021P   23287.28029521  .00001164  00000-0  10533-3 0  9997,2 55641  70.0006 236.7256 0002765 271.1365  88.9477 14.98341574 37067,6950.157,96.106,573.944,570.1,0.0
55641.0,STARLINK-5065,PAYLOAD,2023-10-14 21:08:51,14.98322045,0.0002894,70.0004,235.2093,266.6936,93.3892,-0.00012444,-1.577e-05,0.0,0 STARLINK-5065,1 55641U 23021P   23287.88115333 -.00001577  00000-0 -12444-3 0  9993,2 55641  70.0004 235.2093 0002894 266.6936  93.3892 14.98322045 37157,6950.217,96.108,574.094,570.071,0.0
55641.0,STARLINK-5065,PAYLOAD,2023-10-15 13:10:11,14.98328406,0.0003016,70.0,233.5274,265.4609,94.6206,-6.9607e-05,-9.23e-06,0.0,0 STARLINK-5065,1 55641U 23021P   23288.54874976 -.00000923  00000-0 -69607-4 0  9990,2 55641  70.0000 233.5274 0003016 265.4609  94.6206 14.98328406 37550,6950.198,96.107,574.159,569.967,0.0
55641.0,STARLINK-5065,PAYLOAD,2023-10-15 21:10:52,14.98329664,0.0003027,69.9997,232.6845,269.2909,90.7903,-4.7592e-05,-6.61e-06,0.0,0 STARLINK-5065,1 55641U 23021P   23288.88254827 -.00000661  00000-0 -47592-4 0  9992,2 55641  69.9997 232.6845 0003027 269.2909  90.7903 14.98329664 37304,6950.194,96.107,574.163,569.955,0.0
55641.0,STARLINK-5065,PAYLOAD,2023-10-16 05:11:31,14.98339783,0.0002612,70.0005,231.8418,270.4372,89.6487,1.3823e-06,-7.6e-07,0.0,0 STARLINK-5065,1 55641U 23021P   23289.21634051 -.00000076  00000-0  13823-5 0  9991,2 55641  70.0005 231.8418 0002612 270.4372  89.6487 14.98339783 37353,6950.163,96.106,573.843,570.212,0.0
55641.0,STARLINK-5065,PAYLOAD,2023-10-16 19:36:44,14.98325348,0.0002422,70.0015,230.3302,247.9808,112.1093,0.00017885,2.041e-05,0.0,0 STARLINK-5065,1 55641U 23021P   23289.81718305  .00002041  00000-0  17885-3 0  9995,2 55641  70.0015 230.3302 0002422 247.9808 112.1093 14.98325348 37449,6950.207,96.107,573.756,570.389,0.0
55641.0,STARLINK-5065,PAYLOAD,2023-10-17 13:14:13,14.98324672,0.0002193,70.0021,228.4758,279.9569,80.1343,6.826e-05,7.22e-06,0.0,0 STARLINK-5065,1 55641U 23021P   23290.55155061  .00000722  00000-0  68260-4 0  9990,2 55641  70.0021 228.4758 0002193 279.9569  80.1343 14.98324672 37859,6950.209,96.107,573.599,570.55,0.0
55641.0,STARLINK-5065,PAYLOAD,2023-10-18 02:03:18,14.98332673,0.000279,70.0004,227.1315,261.4213,98.663,-7.4243e-05,-9.79e-06,0.0,0 STARLINK-5065,1 55641U 23021P   23291.08562531 -.00000979  00000-0 -74243-4 0  9997,2 55641  70.0004 227.1315 0002790 261.4213  98.6630 14.98332673 37932,6950.185,96.107,573.989,570.111,0.0
55641.0,STARLINK-5065,PAYLOAD,2023-10-18 05:15:34,14.98333851,0.0002629,70.0011,226.7955,259.816,100.2703,-3.2945e-05,-4.86e-06,0.0,0 STARLINK-5065,1 55641U 23021P   23291.21914405 -.00000486  00000-0 -32945-4 0  9999,2 55641  70.0011 226.7955 0002629 259.8160 100.2703 14.98333851 37657,6950.181,96.107,573.873,570.219,0.0
55641.0,STARLINK-5065,PAYLOAD,2023-10-18 19:40:46,14.98329774,0.0002723,70.0004,225.2796,266.8206,93.2641,-3.0313e-05,-4.55e-06,0.0,0 STARLINK-5065,1 55641U 23021P   23291.81998561 -.00000455  00000-0 -30313-4 0  9993,2 55641  70.0004 225.2796 0002723 266.8206  93.2641 14.98329774 38045,6950.194,96.107,573.951,570.166,0.0
55641.0,STARLINK-5065,PAYLOAD,2023-10-19 05:17:34,14.98337268,0.0002435,70.0021,224.2679,272.5707,87.5173,5.9867e-05,6.22e-06,0.0,0 STARLINK-5065,1 55641U 23021P   23292.22053832  .00000622  00000-0  59867-4 0  9991,2 55641  70.0021 224.2679 0002435 272.5707  87.5173 14.98337268 37809,6950.17,96.107,573.728,570.343,0.0
55641.0,STARLINK-5065,PAYLOAD,2023-10-19 19:42:47,14.98329126,0.0002508,70.0026,222.753,269.6421,90.445,8.9823e-06,1.4e-07,0.0,0 STARLINK-5065,1 55641U 23021P   23292.82138325  .00000014  00000-0  89823-5 0  9999,2 55641  70.0026 222.7530 0002508 269.6421  90.4450 14.98329126 37898,6950.196,96.107,573.804,570.317,0.0
55641.0,STARLINK-5065,PAYLOAD,2023-10-20 05:19:35,14.98334988,0.0002763,70.0008,221.7452,269.5721,90.5122,-1.3236e-05,-2.51e-06,0.0,0 STARLINK-5065,1 55641U 23021P   23293.22193974 -.00000251  00000-0 -13236-4 0  9994,2 55641  70.0008 221.7452 0002763 269.5721  90.5122 14.98334988 38255,6950.177,96.107,573.963,570.122,0.0
55641.0,STARLINK-5065,PAYLOAD,2023-10-20 21:20:56,14.98328088,0.0002437,70.0028,220.0612,273.5632,86.5248,-0.00011011,-1.406e-05,0.0,0 STARLINK-5065,1 55641U 23021P   23293.88954790 -.00001406  00000-0 -11011-3 0  9998,2 55641  70.0028 220.0612 0002437 273.5632  86.5248 14.98328088 38350,6950.199,96.107,573.758,570.37,0.0
55641.0,STARLINK-5065,PAYLOAD,2023-10-21 02:09:21,14.98326372,0.0002683,70.0016,219.5569,269.8711,90.2141,-9.6669e-05,-1.246e-05,0.0,0 STARLINK-5065,1 55641U 23021P   23294.08982854 -.00001246  00000-0 -96669-4 0  9998,2 55641  70.0016 219.5569 0002683 269.8711  90.2141 14.98326372 38088,6950.204,96.107,573.934,570.204,0.0
55641.0,STARLINK-5065,PAYLOAD,2023-10-21 05:21:36,14.98330967,0.0002654,70.0017,219.2204,269.2767,90.8088,-4.2982e-05,-6.06e-06,0.0,0 STARLINK-5065,1 55641U 23021P   23294.22334424 -.00000606  00000-0 -42982-4 0  9996,2 55641  70.0017 219.2204 0002654 269.2767  90.8088 14.98330967 38402,6950.19,96.107,573.899,570.21,0.0
55641.0,STARLINK-5065,PAYLOAD,2023-10-21 21:22:56,14.98337685,0.0002985,70.0004,217.5378,269.5452,90.5365,8.5877e-05,9.32e-06,0.0,0 STARLINK-5065,1 55641U 23021P   23294.89093372  .00000932  00000-0  85877-4 0  9993,2 55641  70.0004 217.5378 0002985 269.5452  90.5365 14.98337685 38209,6950.169,96.107,574.109,569.96,0.0
55641.0,STARLINK-5065,PAYLOAD,2023-10-21 22:59:04,14.98339278,0.0002934,70.0006,217.3695,270.0441,90.0382,0.00010263,1.132e-05,0.0,0 STARLINK-5065,1 55641U 23021P   23294.95769200  .00001132  00000-0  10263-3 0  9999,2 55641  70.0006 217.3695 0002934 270.0441  90.0382 14.98339278 38518,6950.164,96.106,574.068,569.99,0.0
55641.0,STARLINK-5065,PAYLOAD,2023-10-22 03:47:28,14.98342754,0.0002625,70.0013,216.8646,274.5804,85.5055,0.0001887,2.16e-05,0.0,0 STARLINK-5065,1 55641U 23021P   23295.15796618  .00002160  00000-0  18870-3 0  9999,2 55641  70.0013 216.8646 0002625 274.5804  85.5055 14.98342754 38244,6950.153,96.106,573.843,570.194,0.0
55641.0,STARLINK-5065,PAYLOAD,2023-10-22 11:48:09,14.98332292,0.0002876,70.0009,216.0232,272.3732,87.7098,-4.4345e-05,-6.22e-06,0.0,0 STARLINK-5065,1 55641U 23021P   23295.49177564 -.00000622  00000-0 -44345-4 0  9999,2 55641  70.0009 216.0232 0002876 272.3732  87.7098 14.98332292 38298,6950.186,96.107,574.05,570.052,0.0
55641.0,STARLINK-5065,PAYLOAD,2023-10-22 19:48:51,14.98312143,0.0002832,70.0014,215.1826,259.4845,100.5995,-0.00018145,-2.256e-05,0.0,0 STARLINK-5065,1 55641U 23021P   23295.82559425 -.00002256  00000-0 -18145-3 0  9999,2 55641  70.0014 215.1826 0002832 259.4845 100.5995 14.98312143 38345,6950.248,96.108,574.081,570.145,0.0
55641.0,STARLINK-5065,PAYLOAD,2023-10-22 21:24:59,14.98314082,0.0002709,70.0015,215.014,260.0583,100.027,-0.00015867,-1.985e-05,0.0,0 STARLINK-5065,1 55641U 23021P   23295.89235310 -.00001985  00000-0 -15867-3 0  9996,2 55641  70.0015 215.0140 0002709 260.0583 100.0270 14.98314082 38653,6950.242,96.108,573.99,570.224,0.0
55641.0,STARLINK-5065,PAYLOAD,2023-10-23 19:50:51,14.98333358,0.0002676,70.0007,212.6562,262.7436,97.3418,-0.0001591,-1.991e-05,0.0,0 STARLINK-5065,1 55641U 23021P   23296.82698464 -.00001991  00000-0 -15910-3 0  9999,2 55641  70.0007 212.6562 0002676 262.7436  97.3418 14.98333358 38495,6950.183,96.107,573.907,570.188,0.0
55641.0,STARLINK-5065,PAYLOAD,2023-10-23 21:26:59,14.98331853,0.0002587,70.0014,212.4888,259.7802,100.3065,-0.00012859,-1.627e-05,0.0,0 STARLINK-5065,1 55641U 23021P   23296.89374468 -.00001627  00000-0 -12859-3 0  9996,2 55641  70.0014 212.4888 0002587 259.7802 100.3065 14.98331853 38802,6950.187,96.107,573.85,570.254,0.0
55641.0,STARLINK-5065,PAYLOAD,2023-10-24 11:52:11,14.98335146,0.0002748,70.0016,210.9733,270.7353,89.3492,-5.0213e-05,-6.92e-06,0.0,0 STARLINK-5065,1 55641U 23021P   23297.49457919 -.00000692  00000-0 -50213-4 0  9994,2 55641  70.0016 210.9733 0002748 270.7353  89.3492 14.98335146 38897,6950.177,96.107,573.952,570.132,0.0
55641.0,STARLINK-5065,PAYLOAD,2023-10-25 21:31:01,14.98329871,0.0002754,70.0008,207.4389,262.0335,98.0511,-9.9274e-07,-1.05e-06,0.0,0 STARLINK-5065,1 55641U 23021P   23298.89654327 -.00000105  00000-0 -99274-6 0  9992,2 55641  70.0008 207.4389 0002754 262.0335  98.0511 14.98329871 38805,6950.193,96.107,573.972,570.144,0.0
55641.0,STARLINK-5065,PAYLOAD,2023-10-26 03:55:33,14.98332653,0.0002759,70.0011,206.7675,265.5086,94.5758,3.6509e-05,3.43e-06,0.0,0 STARLINK-5065,1 55641U 23021P   23299.16358021  .00000343  00000-0  36509-4 0  9997,2 55641  70.0011 206.7675 0002759 265.5086  94.5758 14.98332653 39149,6950.185,96.107,573.967,570.132,0.0
55641.0,STARLINK-5065,PAYLOAD,2023-10-26 21:33:01,14.98335917,0.0002707,70.001,204.915,267.1523,92.9327,2.313e-05,1.83e-06,0.0,0 STARLINK-5065,1 55641U 23021P   23299.89793631  .00000183  00000-0  23130-4 0  9995,2 55641  70.0010 204.9150 0002707 267.1523  92.9327 14.98335917 39255,6950.175,96.107,573.921,570.158,0.0
